[{"OBJECT_NAME":"OBJECT B","OBJECT_ID":"2024-153B","EPOCH":"2026-03-09T23:15:18.632160","MEAN_MOTION":15.30512917,"ECCENTRICITY":0.00113423,"INCLINATION":97.6622,"RA_OF_ASC_NODE":204.9195,"ARG_OF_PERICENTER":149.8438,"MEAN_ANOMALY":210.3457,"EPHEMERIS_TYPE":0,"CLASSIFICATION_TYPE":"U","NORAD_CAT_ID":60746,"ELEMENT_SET_NO":999,"REV_AT_EPOCH":8476,"BSTAR":0.00066193599,"MEAN_MOTION_DOT":0.00019515,"MEAN_MOTION_DDOT":0},{"OBJECT_NAME":"STARLINK-34817","OBJECT_ID":"2025-190M","EPOCH":"2026-03-09T12:17:17.759904","MEAN_MOTION":15.3018852,"ECCENTRICITY":0.00011812,"INCLINATION":53.1583,"RA_OF_ASC_NODE":169.3105,"ARG_OF_PERICENTER":88.8489,"MEAN_ANOMALY":271.2647,"EPHEMERIS_TYPE":0,"CLASSIFICATION_TYPE":"U","NORAD_CAT_ID":65362,"ELEMENT_SET_NO":999,"REV_AT_EPOCH":2972,"BSTAR":0.00087945293,"MEAN_MOTION_DOT":0.00025769,"MEAN_MOTION_DDOT":0}]
